OCEANSAT-2              
1 35931U 09051A   26194.22047994 -.00000122  00000+0 -58093-4 0  9990
2 35931  98.2319 178.4728 0017220 159.1880 200.9991 13.99656274882972
WORLDVIEW-2 (WV-2)      
1 35946U 09055A   26194.18891992  .00000038  00000+0  27027-4 0  9997
2 35946  98.4757 267.2845 0005230 134.7292 225.4322 14.37906609879381
SMOS                    
1 36036U 09059A   26193.97248845  .00000156  00000+0  63538-4 0  9999
2 36036  98.4426  20.9295 0001137  95.9522 264.1796 14.39735328877163
YAOGAN-7                
1 36110U 09069A   26194.15283377  .00000230  00000+0  39107-4 0  9991
2 36110  98.0036  79.8556 0023625 318.2451  41.6956 14.78034391893462
TANDEM-X                
1 36605U 10030A   26188.47915494  .00000386  00000+0  21566-4 0  9992
2 36605  97.4457 195.8973 0001887  94.3019 265.8431 15.19154052889726
CARTOSAT-2B             
1 36795U 10035A   26194.18995242  .00000435  00000+0  66465-4 0  9993
2 36795  97.9946 244.5711 0012577 105.0646 255.1958 14.78616696863695
YAOGAN-10               
1 36834U 10038A   26194.23215903  .00000763  00000+0  94772-4 0  9991
2 36834  97.8973 217.4285 0001584  82.9024  49.5138 14.85423980861077
COSMO-SKYMED 4          
1 37216U 10060A   26194.16525385 -.00000042  00000+0  12339-5 0  9992
2 37216  97.8891  17.3895 0001517  83.3538 276.7848 14.82147372848416
RESOURCESAT-2           
1 37387U 11015A   26194.20103958  .00000029  00000+0  33381-4 0  9998
2 37387  98.7633 261.4616 0011484 176.6912 183.4343 14.21605588789877
HAIYANG-2A              
1 37781U 11043A   26194.18110370  .00000180  00000+0  24064-3 0  9995
2 37781  99.3398 196.2635 0002845  36.4654 323.6688 13.73482049750221
RASAT                   
1 37791U 11044D   26194.20581990  .00000123  00000+0  29761-4 0  9997
2 37791  98.0583 285.2058 0021887 108.6429 281.7940 14.68191044797000
SRMSAT                  
1 37841U 11058D   26194.22886301  .00000348  00000+0  45216-4 0  9996
2 37841  19.9713 261.8486 0011833 129.6886 263.2365 14.11580868761504
PLEIADES 1A             
1 38012U 11076F   26194.19890984  .00000089  00000+0  29028-4 0  9990
2 38012  98.1975 268.9510 0001705  82.0316   3.0012 14.58546112775786
ZIYUAN 1-02C (ZY 1-02C) 
1 38038U 11079A   26194.22917712  .00000137  00000+0  59262-4 0  9991
2 38038  98.4069 260.9920 0005491 221.3918 175.3774 14.38234407762952
ARIRANG-3 (KOMPSAT-3)   
1 38338U 12025B   26194.17298609  .00000196  00000+0  48218-4 0  9991
2 38338  98.1183 151.1868 0006335  44.2080 315.9627 14.62228028755142
EXACTVIEW-1 (ADS-1B)    
1 38709U 12039C   26193.86946490  .00000033  00000+0  33754-4 0  9990
2 38709  98.9801 311.8429 0011951  97.5787 262.6750 14.24991881726361
SPOT 6                  
1 38755U 12047A   26194.19809361 -.00000031  00000+0  30930-5 0  9995
2 38755  98.2115 261.2008 0001109  84.5816 275.5509 14.58537690736847
PLEIADES 1B             
1 39019U 12068A   26194.14808002  .00000075  00000+0  26067-4 0  9990
2 39019  98.1946 268.8410 0001592  80.8192 279.3188 14.58533542724635
GOKTURK 2               
1 39030U 12073A   26194.18858249  .00000525  00000+0  83924-4 0  9996
2 39030  97.6813  30.3161 0000920  86.1648 273.9667 14.75568089728346
LANDSAT 8               
1 39084U 13008A   26194.18797565  .00000166  00000+0  46945-4 0  9990
2 39084  98.2291 264.0130 0001331  94.4204 265.7147 14.57111094701681
SARAL                   
1 39086U 13009A   26194.15728698  .00000040  00000+0  30656-4 0  9994
2 39086  98.5554  20.3961 0001573 171.9225 188.1985 14.32895462699321
GAOFEN-1                
1 39150U 13018A   26194.22134472  .00000033  00000+0  12084-4 0  9992
2 39150  97.9092 265.7586 0016923 177.5201 182.6096 14.76516224712087
VNREDSAT 1              
1 39160U 13021B   26194.18208131  .00000086  00000+0  24511-4 0  9992
2 39160  97.9073 246.5989 0001609  80.4829 279.6557 14.64881869704092
ARIRANG-5 (KOMPSAT-5)   
1 39227U 13042A   26194.17077382  .00000559  00000+0  44279-4 0  9998
2 39227  97.6211  20.5067 0005602  64.1015 296.0789 15.04523185707763
SKYSAT-A                
1 39418U 13066C   26193.65279623  .00001555  00000+0  91024-4 0  9997
2 39418  97.3804 242.2385 0020250 222.7187 137.2471 15.13106553692330
DUBAISAT-2              
1 39419U 13066D   26194.24146071  .00003129  00000+0  19432-3 0  9995
2 39419  97.4571 183.7072 0009710 310.6325  49.4060 15.10369373690327
GPM-CORE                
1 39574U 14009C   26194.16897148  .00003430  00000+0  77645-4 0  9990
2 39574  64.9693 221.0776 0010992 261.3795  98.6100 15.45028449701820
SENTINEL-1A             
1 39634U 14016A   26194.15033112  .00000088  00000+0  28327-4 0  9996
2 39634  98.1783 201.3040 0001433  86.6360 273.5003 14.59200603653805
KAZEOSAT 1              
1 39731U 14024A   26194.17994458 -.00000111  00000+0 -20823-4 0  9996
2 39731  98.3205 265.9790 0001228  83.5685 276.5645 14.42036242642306
ALOS-2                  
1 39766U 14029A   26194.24545178  .00001049  00000+0  14729-3 0  9994
2 39766  97.9229 291.0365 0001600  93.6844 266.4550 14.79472249655438
KAZEOSAT 2              
1 40010U 14033A   26194.16351438  .00000221  00000+0  31398-4 0  9991
2 40010  97.5398  32.4020 0007284 227.4850 132.5751 14.85497495652810
