OBJECT_NAME,OBJECT_ID,EPOCH,MEAN_MOTION,ECCENTRICITY,INCLINATION,RA_OF_ASC_NODE,ARG_OF_PERICENTER,MEAN_ANOMALY,EPHEMERIS_TYPE,CLASSIFICATION_TYPE,NORAD_CAT_ID,ELEMENT_SET_NO,REV_AT_EPOCH,BSTAR,MEAN_MOTION_DOT,MEAN_MOTION_DDOT
OCEANSAT-2,2009-051A,2026-07-13T05:17:29.466816,13.99656274,.001722,98.2319,178.4728,159.1880,200.9991,0,U,35931,999,88297,-.58093E-4,-.122E-5,0
WORLDVIEW-2 (WV-2),2009-055A,2026-07-13T04:32:02.681088,14.37906609,.000523,98.4757,267.2845,134.7292,225.4322,0,U,35946,999,87938,.27027E-4,.38E-6,0
SMOS,2009-059A,2026-07-12T23:20:23.002080,14.39735328,.0001137,98.4426,20.9295,95.9522,264.1796,0,U,36036,999,87716,.63538E-4,.156E-5,0
YAOGAN-7,2009-069A,2026-07-13T03:40:04.837728,14.78034391,.0023625,98.0036,79.8556,318.2451,41.6956,0,U,36110,999,89346,.39107E-4,.23E-5,0
TANDEM-X,2010-030A,2026-07-07T11:29:58.986816,15.19154052,.0001887,97.4457,195.8973,94.3019,265.8431,0,U,36605,999,88972,.21566E-4,.386E-5,0
CARTOSAT-2B,2010-035A,2026-07-13T04:33:31.889088,14.78616696,.0012577,97.9946,244.5711,105.0646,255.1958,0,U,36795,999,86369,.66465E-4,.435E-5,0
YAOGAN-10,2010-038A,2026-07-13T05:34:18.540192,14.85423980,.0001584,97.8973,217.4285,82.9024,49.5138,0,U,36834,999,86107,.94772E-4,.763E-5,0
COSMO-SKYMED 4,2010-060A,2026-07-13T03:57:57.932640,14.82147372,.0001517,97.8891,17.3895,83.3538,276.7848,0,U,37216,999,84841,.12339E-5,-.42E-6,0
RESOURCESAT-2,2011-015A,2026-07-13T04:49:29.819712,14.21605588,.0011484,98.7633,261.4616,176.6912,183.4343,0,U,37387,999,78987,.33381E-4,.29E-6,0
HAIYANG-2A,2011-043A,2026-07-13T04:20:47.359680,13.73482049,.0002845,99.3398,196.2635,36.4654,323.6688,0,U,37781,999,75022,.24064E-3,.18E-5,0
RASAT,2011-044D,2026-07-13T04:56:22.839360,14.68191044,.0021887,98.0583,285.2058,108.6429,281.7940,0,U,37791,999,79700,.29761E-4,.123E-5,0
SRMSAT,2011-058D,2026-07-13T05:29:33.764064,14.11580868,.0011833,19.9713,261.8486,129.6886,263.2365,0,U,37841,999,76150,.45216E-4,.348E-5,0
PLEIADES 1A,2011-076F,2026-07-13T04:46:25.810176,14.58546112,.0001705,98.1975,268.9510,82.0316,3.0012,0,U,38012,999,77578,.29028E-4,.89E-6,0
ZIYUAN 1-02C (ZY 1-02C),2011-079A,2026-07-13T05:30:00.903168,14.38234407,.0005491,98.4069,260.9920,221.3918,175.3774,0,U,38038,999,76295,.59262E-4,.137E-5,0
ARIRANG-3 (KOMPSAT-3),2012-025B,2026-07-13T04:09:05.998176,14.62228028,.0006335,98.1183,151.1868,44.2080,315.9627,0,U,38338,999,75514,.48218E-4,.196E-5,0
EXACTVIEW-1 (ADS-1B),2012-039C,2026-07-12T20:52:01.767360,14.24991881,.0011951,98.9801,311.8429,97.5787,262.6750,0,U,38709,999,72636,.33754E-4,.33E-6,0
SPOT 6,2012-047A,2026-07-13T04:45:15.287904,14.58537690,.0001109,98.2115,261.2008,84.5816,275.5509,0,U,38755,999,73684,.3093E-5,-.31E-6,0
PLEIADES 1B,2012-068A,2026-07-13T03:33:14.113728,14.58533542,.0001592,98.1946,268.8410,80.8192,279.3188,0,U,39019,999,72463,.26067E-4,.75E-6,0
GOKTURK 2,2012-073A,2026-07-13T04:31:33.527136,14.75568089,.000092,97.6813,30.3161,86.1648,273.9667,0,U,39030,999,72834,.83924E-4,.525E-5,0
LANDSAT 8,2013-008A,2026-07-13T04:30:41.096160,14.57111094,.0001331,98.2291,264.0130,94.4204,265.7147,0,U,39084,999,70168,.46945E-4,.166E-5,0
SARAL,2013-009A,2026-07-13T03:46:29.595072,14.32895462,.0001573,98.5554,20.3961,171.9225,188.1985,0,U,39086,999,69932,.30656E-4,.4E-6,0
GAOFEN-1,2013-018A,2026-07-13T05:18:44.183808,14.76516224,.0016923,97.9092,265.7586,177.5201,182.6096,0,U,39150,999,71208,.12084E-4,.33E-6,0
VNREDSAT 1,2013-021B,2026-07-13T04:22:11.825184,14.64881869,.0001609,97.9073,246.5989,80.4829,279.6557,0,U,39160,999,70409,.24511E-4,.86E-6,0
ARIRANG-5 (KOMPSAT-5),2013-042A,2026-07-13T04:05:54.858048,15.04523185,.0005602,97.6211,20.5067,64.1015,296.0789,0,U,39227,999,70776,.44279E-4,.559E-5,0
SKYSAT-A,2013-066C,2026-07-12T15:40:01.594272,15.13106553,.002025,97.3804,242.2385,222.7187,137.2471,0,U,39418,999,69233,.91024E-4,.1555E-4,0
DUBAISAT-2,2013-066D,2026-07-13T05:47:42.205344,15.10369373,.000971,97.4571,183.7072,310.6325,49.4060,0,U,39419,999,69032,.19432E-3,.3129E-4,0
GPM-CORE,2014-009C,2026-07-13T04:03:19.135872,15.45028449,.0010992,64.9693,221.0776,261.3795,98.6100,0,U,39574,999,70182,.77645E-4,.343E-4,0
SENTINEL-1A,2014-016A,2026-07-13T03:36:28.608768,14.59200603,.0001433,98.1783,201.3040,86.6360,273.5003,0,U,39634,999,65380,.28327E-4,.88E-6,0
KAZEOSAT 1,2014-024A,2026-07-13T04:19:07.211712,14.42036242,.0001228,98.3205,265.9790,83.5685,276.5645,0,U,39731,999,64230,-.20823E-4,-.111E-5,0
ALOS-2,2014-029A,2026-07-13T05:53:27.033792,14.79472249,.00016,97.9229,291.0365,93.6844,266.4550,0,U,39766,999,65543,.14729E-3,.1049E-4,0
KAZEOSAT 2,2014-033A,2026-07-13T03:55:27.642432,14.85497495,.0007284,97.5398,32.4020,227.4850,132.5751,0,U,40010,999,65281,.31398E-4,.221E-5,0
